[Satellite]
VERSION=1.1
NAME=LES 9
NICKNAME=LES 9
TLE1=1 08747U 76023B   11058.54717865 -.00000115  00000-0  10000-3 0  5653
TLE2=2 08747  11.6214 131.4925 0022549 347.5780 132.3718  1.00272016 73648
